NORAD_CAT_ID,OBJECT_NAME,OBJECT_TYPE,EPOCH,MEAN_MOTION,ECCENTRICITY,INCLINATION,RA_OF_ASC_NODE,ARG_OF_PERICENTER,MEAN_ANOMALY,BSTAR,MEAN_MOTION_DOT,MEAN_MOTION_DDOT,TLE_LINE0,TLE_LINE1,TLE_LINE2,SEMIMAJOR_AXIS,PERIOD,APOGEE,PERIGEE,DECAYED
51143.0,STARLINK-3184,PAYLOAD,2024-04-14 11:45:54,15.08845343,0.0001474,53.2184,185.5035,75.3642,284.7514,4.1341e-05,3.7e-06,0.0,0 STARLINK-3184,1 51143U 22005AR  24105.49021473  .00000370  00000-0  41341-4 0  9992,2 51143  53.2184 185.5035 0001474  75.3642 284.7514 15.08845343124907,6917.864,95.437,540.749,538.709,0.0
51143.0,STARLINK-3184,PAYLOAD,2024-04-15 11:36:41,15.08840717,0.0001376,53.2178,181.0414,83.9648,276.1501,-2.5989e-05,-7.02e-06,0.0,0 STARLINK-3184,1 51143U 22005AR  24106.48381752 -.00000702  00000-0 -25989-4 0  9992,2 51143  53.2178 181.0414 0001376  83.9648 276.1501 15.08840717125052,6917.878,95.438,540.695,538.791,0.0
51143.0,STARLINK-3184,PAYLOAD,2024-04-16 11:27:28,15.08839883,0.0001343,53.217,176.5797,86.9072,273.2074,3.5702e-05,2.8e-06,0.0,0 STARLINK-3184,1 51143U 22005AR  24107.47741545  .00000280  00000-0  35702-4 0  9995,2 51143  53.2170 176.5797 0001343  86.9072 273.2074 15.08839883124093,6917.881,95.438,540.675,538.817,0.0
51143.0,STARLINK-3184,PAYLOAD,2024-04-17 04:56:43,15.08831766,0.0001384,53.217,173.3095,87.4205,272.6945,6.668e-06,-1.82e-06,0.0,0 STARLINK-3184,1 51143U 22005AR  24108.20606369 -.00000182  00000-0  66680-5 0  9993,2 51143  53.2170 173.3095 0001384  87.4205 272.6945 15.08831766125316,6917.906,95.438,540.728,538.813,0.0
51143.0,STARLINK-3184,PAYLOAD,2024-04-17 11:18:17,15.08821522,0.000133,53.2169,172.1207,87.0139,273.1005,-5.7146e-05,-1.197e-05,0.0,0 STARLINK-3184,1 51143U 22005AR  24108.47103409 -.00001197  00000-0 -57146-4 0  9993,2 51143  53.2169 172.1207 0001330  87.0139 273.1005 15.08821522125355,6917.937,95.439,540.722,538.882,0.0
51143.0,STARLINK-3184,PAYLOAD,2024-04-17 20:50:35,15.08835729,0.0001205,53.217,170.3378,77.1737,282.939,3.0747e-05,2.01e-06,0.0,0 STARLINK-3184,1 51143U 22005AR  24108.86846535  .00000201  00000-0  30747-4 0  9991,2 51143  53.2170 170.3378 0001205  77.1737 282.9390 15.08835729125417,6917.893,95.438,540.592,538.925,0.0
51143.0,STARLINK-3184,PAYLOAD,2024-04-18 11:09:04,15.0882823,0.0001542,53.2183,167.6661,95.3163,264.8005,3.4266e-05,2.57e-06,0.0,0 STARLINK-3184,1 51143U 22005AR  24109.46463368  .00000257  00000-0  34266-4 0  9998,2 51143  53.2183 167.6661 0001542  95.3163 264.8005 15.08828230125505,6917.916,95.438,540.848,538.715,0.0
51143.0,STARLINK-3184,PAYLOAD,2024-04-19 12:35:14,15.08834512,0.0001564,53.2177,162.9074,79.1738,280.943,0.00021239,3.093e-05,0.0,0 STARLINK-3184,1 51143U 22005AR  24110.52446891  .00003093  00000-0  21239-3 0  9995,2 51143  53.2177 162.9074 0001564  79.1738 280.9430 15.08834512125664,6917.897,95.438,540.844,538.68,0.0
51143.0,STARLINK-3184,PAYLOAD,2024-04-20 02:53:41,15.08848694,0.0001655,53.218,160.2262,78.4304,281.6874,0.00020573,2.988e-05,0.0,0 STARLINK-3184,1 51143U 22005AR  24111.12061807  .00002988  00000-0  20573-3 0  9994,2 51143  53.2180 160.2262 0001655  78.4304 281.6874 15.08848694125756,6917.854,95.437,540.864,538.574,0.0
51143.0,STARLINK-3184,PAYLOAD,2024-04-20 10:50:35,15.08863833,0.0001631,53.2174,158.7399,81.5381,278.5796,0.00024069,3.547e-05,0.0,0 STARLINK-3184,1 51143U 22005AR  24111.45180525  .00003547  00000-0  24069-3 0  9995,2 51143  53.2174 158.7399 0001631  81.5381 278.5796 15.08863833125802,6917.808,95.436,540.801,538.544,0.0
51143.0,STARLINK-3184,PAYLOAD,2024-04-21 02:44:27,15.0885567,0.0001565,53.217,155.7665,89.4364,270.6807,2.233e-05,6.7e-07,0.0,0 STARLINK-3184,1 51143U 22005AR  24112.11421213  .00000067  00000-0  22330-4 0  9995,2 51143  53.2170 155.7665 0001565  89.4364 270.6807 15.08855670125902,6917.832,95.437,540.78,538.615,0.0
51143.0,STARLINK-3184,PAYLOAD,2024-04-21 07:30:40,15.08815106,0.0001662,53.2176,154.8747,68.4582,291.6587,-0.00028726,-4.854e-05,0.0,0 STARLINK-3184,1 51143U 22005AR  24112.31296690 -.00004854  00000-0 -28726-3 0  9990,2 51143  53.2176 154.8747 0001662  68.4582 291.6587 15.08815106124824,6917.956,95.439,540.971,538.672,0.0
51143.0,STARLINK-3184,PAYLOAD,2024-04-22 08:56:48,15.08852926,0.0001674,53.2176,150.1155,91.8828,268.2356,-8.5027e-05,-1.642e-05,0.0,0 STARLINK-3184,1 51143U 22005AR  24113.37278178 -.00001642  00000-0 -85027-4 0  9998,2 51143  53.2176 150.1155 0001674  91.8828 268.2356 15.08852926126098,6917.841,95.437,540.864,538.548,0.0
51143.0,STARLINK-3184,PAYLOAD,2024-04-22 12:07:34,15.08851264,0.0001602,53.217,149.5181,86.6613,273.4563,-0.00010957,-2.032e-05,0.0,0 STARLINK-3184,1 51143U 22005AR  24113.50526254 -.00002032  00000-0 -10957-3 0  9997,2 51143  53.2170 149.5181 0001602  86.6613 273.4563 15.08851264125000,6917.846,95.437,540.819,538.603,0.0
51143.0,STARLINK-3184,PAYLOAD,2024-04-23 02:26:03,15.08809484,0.000103,53.2174,146.8399,61.1301,298.9795,0.0005254,8.077e-05,0.0,0 STARLINK-3184,1 51143U 22005AR  24114.10142955  .00008077  00000-0  52540-3 0  9993,2 51143  53.2174 146.8399 0001030  61.1301 298.9795 15.08809484126201,6917.974,95.439,540.551,539.126,0.0
51143.0,STARLINK-3184,PAYLOAD,2024-04-23 08:47:36,15.08820418,0.0001798,53.2167,145.6514,92.1083,268.0115,0.00029693,4.438e-05,0.0,0 STARLINK-3184,1 51143U 22005AR  24114.36639422  .00004438  00000-0  29693-3 0  9991,2 51143  53.2167 145.6514 0001798  92.1083 268.0115 15.08820418125136,6917.94,95.439,541.049,538.561,0.0
51143.0,STARLINK-3184,PAYLOAD,2024-04-24 02:16:50,15.08841947,0.000152,53.2164,142.3792,88.2222,271.8944,6.5207e-05,7.5e-06,0.0,0 STARLINK-3184,1 51143U 22005AR  24115.09503124  .00000750  00000-0  65207-4 0  9996,2 51143  53.2164 142.3792 0001520  88.2222 271.8944 15.08841947126356,6917.874,95.437,540.791,538.688,0.0
51143.0,STARLINK-3184,PAYLOAD,2024-04-24 08:38:23,15.08843808,0.0001497,53.2165,141.1905,84.9701,275.1462,6.7998e-05,7.94e-06,0.0,0 STARLINK-3184,1 51143U 22005AR  24115.35998979  .00000794  00000-0  67998-4 0  9998,2 51143  53.2165 141.1905 0001497  84.9701 275.1462 15.08843808125289,6917.869,95.437,540.769,538.698,0.0
51143.0,STARLINK-3184,PAYLOAD,2024-04-25 05:18:24,15.0885376,0.0001438,53.2169,137.3272,106.7136,253.4014,-0.00027543,-4.67e-05,0.0,0 STARLINK-3184,1 51143U 22005AR  24116.22111274 -.00004670  00000-0 -27543-3 0  9990,2 51143  53.2169 137.3272 0001438 106.7136 253.4014 15.08853760126525,6917.838,95.437,540.698,538.709,0.0
51143.0,STARLINK-3184,PAYLOAD,2024-04-25 06:53:47,15.0883253,0.0001602,53.2173,137.0296,107.8818,252.2349,9.8377e-06,-1.31e-06,0.0,0 STARLINK-3184,1 51143U 22005AR  24116.28735748 -.00000131  00000-0  98377-5 0  9996,2 51143  53.2173 137.0296 0001602 107.8818 252.2349 15.08832530126536,6917.903,95.438,540.876,538.66,0.0
51143.0,STARLINK-3184,PAYLOAD,2024-04-26 08:19:57,15.08839084,0.0001412,53.2165,132.2736,99.4352,260.68,2.1368e-05,5.2e-07,0.0,0 STARLINK-3184,1 51143U 22005AR  24117.34719618  .00000052  00000-0  21368-4 0  9998,2 51143  53.2165 132.2736 0001412  99.4352 260.6800 15.08839084126694,6917.883,95.438,540.725,538.771,0.0
51143.0,STARLINK-3184,PAYLOAD,2024-04-27 09:46:07,15.08844723,0.0001479,53.2165,127.5162,87.5777,272.5384,0.0002154,3.142e-05,0.0,0 STARLINK-3184,1 51143U 22005AR  24118.40702949  .00003142  00000-0  21540-3 0  9999,2 51143  53.2165 127.5162 0001479  87.5777 272.5384 15.08844723126859,6917.866,95.437,540.754,538.708,0.0
51143.0,STARLINK-3184,PAYLOAD,2024-04-27 17:43:02,15.08848621,0.0001524,53.2169,126.0298,89.5587,270.558,0.00019663,2.843e-05,0.0,0 STARLINK-3184,1 51143U 22005AR  24118.73822576  .00002843  00000-0  19663-3 0  9994,2 51143  53.2169 126.0298 0001524  89.5587 270.5580 15.08848621125798,6917.854,95.437,540.773,538.665,0.0
51143.0,STARLINK-3184,PAYLOAD,2024-04-28 04:50:46,15.08831447,0.0001607,53.2164,123.948,93.1092,267.0084,-2.0715e-05,-6.18e-06,0.0,0 STARLINK-3184,1 51143U 22005AR  24119.20192404 -.00000618  00000-0 -20715-4 0  9998,2 51143  53.2164 123.9480 0001607  93.1092 267.0084 15.08831447126975,6917.907,95.438,540.883,538.66,0.0
51143.0,STARLINK-3184,PAYLOAD,2024-04-28 08:01:32,15.08833091,0.0001475,53.2164,123.3531,93.8636,266.2524,-9.925e-07,-3.04e-06,0.0,0 STARLINK-3184,1 51143U 22005AR  24119.33440327 -.00000304  00000-0 -99250-6 0  9996,2 51143  53.2164 123.3531 0001475  93.8636 266.2524 15.08833091125886,6917.902,95.438,540.787,538.746,0.0
51143.0,STARLINK-3184,PAYLOAD,2024-04-28 17:33:50,15.08836527,0.000149,53.2155,121.5691,94.2298,265.8865,-4.1163e-05,-9.43e-06,0.0,0 STARLINK-3184,1 51143U 22005AR  24119.73183692 -.00000943  00000-0 -41163-4 0  9996,2 51143  53.2155 121.5691 0001490  94.2298 265.8865 15.08836527127050,6917.891,95.438,540.787,538.725,0.0
51143.0,STARLINK-3184,PAYLOAD,2024-04-29 09:27:41,15.088445,0.0001447,53.2156,118.5951,96.5162,263.5995,9.0513e-05,1.153e-05,0.0,0 STARLINK-3184,1 51143U 22005AR  24120.39423391  .00001153  00000-0  90513-4 0  9998,2 51143  53.2156 118.5951 0001447  96.5162 263.5995 15.08844500126040,6917.867,95.437,540.733,538.731,0.0
51143.0,STARLINK-3184,PAYLOAD,2024-04-29 17:24:37,15.08847547,0.000146,53.2158,117.1085,95.2277,264.8882,0.00013565,1.872e-05,0.0,0 STARLINK-3184,1 51143U 22005AR  24120.72543260  .00001872  00000-0  13565-3 0  9992,2 51143  53.2158 117.1085 0001460  95.2277 264.8882 15.08847547127205,6917.857,95.437,540.732,538.712,0.0
51143.0,STARLINK-3184,PAYLOAD,2024-04-30 06:07:42,15.08847598,0.0001474,53.2158,114.7298,98.6807,261.4352,0.00036407,5.512e-05,0.0,0 STARLINK-3184,1 51143U 22005AR  24121.25535519  .00005512  00000-0  36407-3 0  9994,2 51143  53.2158 114.7298 0001474  98.6807 261.4352 15.08847598126171,6917.857,95.437,540.742,538.702,0.0
51143.0,STARLINK-3184,PAYLOAD,2024-05-01 05:58:29,15.08842408,0.0001431,53.2159,110.2705,94.7055,265.41,9.9369e-05,1.294e-05,0.0,0 STARLINK-3184,1 51143U 22005AR  24122.24895599  .00001294  00000-0  99369-4 0  9991,2 51143  53.2159 110.2705 0001431  94.7055 265.4100 15.08842408127431,6917.873,95.437,540.728,538.748,0.0
